{"type": "FeatureCollection", "features": [ {"type": "Feature", "properties": {"norad_id": 66396, "name": "STARLINK-35669", "group": "last-30-days", "lat": 45.814367079638984, "lon": -19.06359444554877, "alt_km": 410.0444286049815, "timestamp": "2025-12-07T03:52:31.202330+00:00", "meta": {"OBJECT_NAME": "STARLINK-35669", "OBJECT_ID": "2025-257S", "EPOCH": "2025-12-05T14:27:24.793056", "MEAN_MOTION": 15.49619062, "ECCENTRICITY": 0.00015262, "INCLINATION": 53.1591, "RA_OF_ASC_NODE": 297.9221, "ARG_OF_PERICENTER": 110.2235, "MEAN_ANOMALY": 249.8938, "EPHEMERIS_TYPE": 0, "CLASSIFICATION_TYPE": "U", "NORAD_CAT_ID": 66396, "ELEMENT_SET_NO": 999, "REV_AT_EPOCH": 527, "BSTAR": 0.0020340148, "MEAN_MOTION_DOT": 0.00115623, "MEAN_MOTION_DDOT": 0}, "tle": {"line1": "1 66396U 25257S   25339.60237029  .00115623  00000+0  20340-2 0  9990", "line2": "2 66396  53.1591 297.9221 0001526 110.2235 249.8938 15.49619062  5276"}}, "geometry": {"type": "Point", "coordinates": [-19.06359444554877, 45.814367079638984]}}, {"type": "Feature", "properties": {"norad_id": 66397, "name": "STARLINK-35510", "group": "last-30-days", "lat": 24.823856783980006, "lon": -49.182429650701565, "alt_km": 441.09184537571764, "timestamp": "2025-12-07T03:52:31.202341+00:00", "meta": {"OBJECT_NAME": "STARLINK-35510", "OBJECT_ID": "2025-257T", "EPOCH": "2025-12-06T14:00:01.999872", "MEAN_MOTION": 15.43196158, "ECCENTRICITY": 0.00010478, "INCLINATION": 53.1594, "RA_OF_ASC_NODE": 293.2597, "ARG_OF_PERICENTER": 84.292, "MEAN_ANOMALY": 336.6187, "EPHEMERIS_TYPE": 0, "CLASSIFICATION_TYPE": "U", "NORAD_CAT_ID": 66397, "ELEMENT_SET_NO": 999, "REV_AT_EPOCH": 550, "BSTAR": -0.051411688, "MEAN_MOTION_DOT": -0.02057867, "MEAN_MOTION_DDOT": 0}, "tle": {"line1": "1 66397U 25257T   25340.58335648 -.02057867  00000+0 -51412-1 0  9998", "line2": "2 66397  53.1594 293.2597 0001047  84.2920 336.6187 15.43196158  5501"}}, "geometry": {"type": "Point", "coordinates": [-49.182429650701565, 24.823856783980006]}}, {"type": "Feature", "properties": {"norad_id": 66398, "name": "STARLINK-35642", "group": "last-30-days", "lat": 43.57193024526996, "lon": -24.03012650024716, "alt_km": 417.73341728530795, "timestamp": "2025-12-07T03:52:31.202352+00:00", "meta": {"OBJECT_NAME": "STARLINK-35642", "OBJECT_ID": "2025-257U", "EPOCH": "2025-12-06T04:22:47.917920", "MEAN_MOTION": 15.48674632, "ECCENTRICITY": 9.202e-05, "INCLINATION": 53.1592, "RA_OF_ASC_NODE": 295.1428, "ARG_OF_PERICENTER": 161.1871, "MEAN_ANOMALY": 198.9172, "EPHEMERIS_TYPE": 0, "CLASSIFICATION_TYPE": "U", "NORAD_CAT_ID": 66398, "ELEMENT_SET_NO": 999, "REV_AT_EPOCH": 536, "BSTAR": -0.0089627224, "MEAN_MOTION_DOT": -0.00460233, "MEAN_MOTION_DDOT": 0}, "tle": {"line1": "1 66398U 25257U   25340.18249905 -.00460233  00000+0 -89627-2 0  9998", "line2": "2 66398  53.1592 295.1428 0000920 161.1871 198.9172 15.48674632  5363"}}, "geometry": {"type": "Point", "coordinates": [-24.03012650024716, 43.57193024526996]}}, {"type": "Feature", "properties": {"norad_id": 66399, "name": "STARLINK-35657", "group": "last-30-days", "lat": 26.338110554886445, "lon": -47.690973903255305, "alt_km": 441.7529633673548, "timestamp": "2025-12-07T03:52:31.202362+00:00", "meta": {"OBJECT_NAME": "STARLINK-35657", "OBJECT_ID": "2025-257V", "EPOCH": "2025-12-06T14:00:01.999872", "MEAN_MOTION": 15.42918804, "ECCENTRICITY": 8.55e-05, "INCLINATION": 53.159, "RA_OF_ASC_NODE": 293.2545, "ARG_OF_PERICENTER": 109.999, "MEAN_ANOMALY": 313.4601, "EPHEMERIS_TYPE": 0, "CLASSIFICATION_TYPE": "U", "NORAD_CAT_ID": 66399, "ELEMENT_SET_NO": 999, "REV_AT_EPOCH": 550, "BSTAR": -0.050808869, "MEAN_MOTION_DOT": -0.02019289, "MEAN_MOTION_DDOT": 0}, "tle": {"line1": "1 66399U 25257V   25340.58335648 -.02019289  00000+0 -50809-1 0  9995", "line2": "2 66399  53.1590 293.2545 0000855 109.9990 313.4601 15.42918804  5503"}}, "geometry": {"type": "Point", "coordinates": [-47.690973903255305, 26.338110554886445]}}, {"type": "Feature", "properties": {"norad_id": 66400, "name": "STARLINK-35667", "group": "last-30-days", "lat": 48.6696854624397, "lon": -11.06777432577382, "alt_km": 411.5156199781013, "timestamp": "2025-12-07T03:52:31.202373+00:00", "meta": {"OBJECT_NAME": "STARLINK-35667", "OBJECT_ID": "2025-257W", "EPOCH": "2025-12-06T04:21:09.466848", "MEAN_MOTION": 15.49356007, "ECCENTRICITY": 0.00018529, "INCLINATION": 53.1592, "RA_OF_ASC_NODE": 295.135, "ARG_OF_PERICENTER": 118.9172, "MEAN_ANOMALY": 241.2023, "EPHEMERIS_TYPE": 0, "CLASSIFICATION_TYPE": "U", "NORAD_CAT_ID": 66400, "ELEMENT_SET_NO": 999, "REV_AT_EPOCH": 536, "BSTAR": -0.00068117353, "MEAN_MOTION_DOT": -0.00038213, "MEAN_MOTION_DDOT": 0}, "tle": {"line1": "1 66400U 25257W   25340.18135957 -.00038213  00000+0 -68117-3 0  9994", "line2": "2 66400  53.1592 295.1350 0001852 118.9172 241.2023 15.49356007  5361"}}, "geometry": {"type": "Point", "coordinates": [-11.06777432577382, 48.6696854624397]}}, {"type": "Feature", "properties": {"norad_id": 66401, "name": "STARLINK-35668", "group": "last-30-days", "lat": 48.037546067510114, "lon": -13.057871898268186, "alt_km": 418.853837889038, "timestamp": "2025-12-07T03:52:31.202385+00:00", "meta": {"OBJECT_NAME": "STARLINK-35668", "OBJECT_ID": "2025-257X", "EPOCH": "2025-12-06T08:00:01.999872", "MEAN_MOTION": 15.49728436, "ECCENTRICITY": 0.00015575, "INCLINATION": 53.1587, "RA_OF_ASC_NODE": 294.4065, "ARG_OF_PERICENTER": 90.2703, "MEAN_ANOMALY": 39.9269, "EPHEMERIS_TYPE": 0, "CLASSIFICATION_TYPE": "U", "NORAD_CAT_ID": 66401, "ELEMENT_SET_NO": 999, "REV_AT_EPOCH": 546, "BSTAR": -0.033578695, "MEAN_MOTION_DOT": -0.01694206, "MEAN_MOTION_DDOT": 0}, "tle": {"line1": "1 66401U 25257X   25340.33335648 -.01694206  00000+0 -33579-1 0  9994", "line2": "2 66401  53.1587 294.4065 0001557  90.2703  39.9269 15.49728436  5469"}}, "geometry": {"type": "Point", "coordinates": [-13.057871898268186, 48.037546067510114]}}, {"type": "Feature", "properties": {"norad_id": 66402, "name": "STARLINK-35644", "group": "last-30-days", "lat": 49.603941704061256, "lon": -7.7818696152485645, "alt_km": 410.85475717861027, "timestamp": "2025-12-07T03:52:31.202396+00:00", "meta": {"OBJECT_NAME": "STARLINK-35644", "OBJECT_ID": "2025-257Y", "EPOCH": "2025-12-06T05:53:33.843840", "MEAN_MOTION": 15.49361286, "ECCENTRICITY": 7.923e-05, "INCLINATION": 53.1581, "RA_OF_ASC_NODE": 294.8244, "ARG_OF_PERICENTER": 85.5717, "MEAN_ANOMALY": 274.5382, "EPHEMERIS_TYPE": 0, "CLASSIFICATION_TYPE": "U", "NORAD_CAT_ID": 66402, "ELEMENT_SET_NO": 999, "REV_AT_EPOCH": 537, "BSTAR": 0.0018840832, "MEAN_MOTION_DOT": 0.00105964, "MEAN_MOTION_DDOT": 0}, "tle": {"line1": "1 66402U 25257Y   25340.24553060  .00105964  00000+0  18841-2 0  9996", "line2": "2 66402  53.1581 294.8244 0000792  85.5717 274.5382 15.49361286  5378"}}, "geometry": {"type": "Point", "coordinates": [-7.7818696152485645, 49.603941704061256]}}, {"type": "Feature", "properties": {"norad_id": 66403, "name": "STARLINK-35602", "group": "last-30-days", "lat": 50.41267298839238, "lon": -4.509479883097464, "alt_km": 410.2397894012065, "timestamp": "2025-12-07T03:52:31.202411+00:00", "meta": {"OBJECT_NAME": "STARLINK-35602", "OBJECT_ID": "2025-257Z", "EPOCH": "2025-12-06T04:20:10.783968", "MEAN_MOTION": 15.49424028, "ECCENTRICITY": 0.00014724, "INCLINATION": 53.1591, "RA_OF_ASC_NODE": 295.1307, "ARG_OF_PERICENTER": 117.2823, "MEAN_ANOMALY": 242.8336, "EPHEMERIS_TYPE": 0, "CLASSIFICATION_TYPE": "U", "NORAD_CAT_ID": 66403, "ELEMENT_SET_NO": 999, "REV_AT_EPOCH": 536, "BSTAR": 0.0022222457, "MEAN_MOTION_DOT": 0.0012566, "MEAN_MOTION_DDOT": 0}, "tle": {"line1": "1 66403U 25257Z   25340.18068037  .00125660  00000+0  22222-2 0  9998", "line2": "2 66403  53.1591 295.1307 0001472 117.2823 242.8336 15.49424028  5361"}}, "geometry": {"type": "Point", "coordinates": [-4.509479883097464, 50.41267298839238]}}, {"type": "Feature", "properties": {"norad_id": 66404, "name": "STARLINK-35691", "group": "last-30-days", "lat": 50.931386100624934, "lon": -2.109207568542607, "alt_km": 410.9431989300547, "timestamp": "2025-12-07T03:52:31.202422+00:00", "meta": {"OBJECT_NAME": "STARLINK-35691", "OBJECT_ID": "2025-257AA", "EPOCH": "2025-12-06T07:25:27.788160", "MEAN_MOTION": 15.49375939, "ECCENTRICITY": 4.55e-05, "INCLINATION": 53.1594, "RA_OF_ASC_NODE": 294.5115, "ARG_OF_PERICENTER": 127.6305, "MEAN_ANOMALY": 232.4745, "EPHEMERIS_TYPE": 0, "CLASSIFICATION_TYPE": "U", "NORAD_CAT_ID": 66404, "ELEMENT_SET_NO": 999, "REV_AT_EPOCH": 538, "BSTAR": 0.0020746218, "MEAN_MOTION_DOT": 0.00116952, "MEAN_MOTION_DDOT": 0}, "tle": {"line1": "1 66404U 25257AA  25340.30934940  .00116952  00000+0  20746-2 0  9991", "line2": "2 66404  53.1594 294.5115 0000455 127.6305 232.4745 15.49375939  5382"}}, "geometry": {"type": "Point", "coordinates": [-2.109207568542607, 50.931386100624934]}}, {"type": "Feature", "properties": {"norad_id": 66405, "name": "STARLINK-35683", "group": "last-30-days", "lat": 51.39519313961555, "lon": 0.32099966662364876, "alt_km": 410.8177623997981, "timestamp": "2025-12-07T03:52:31.202433+00:00", "meta": {"OBJECT_NAME": "STARLINK-35683", "OBJECT_ID": "2025-257AB", "EPOCH": "2025-12-06T04:19:12.292032", "MEAN_MOTION": 15.49283742, "ECCENTRICITY": 8.737e-05, "INCLINATION": 53.1588, "RA_OF_ASC_NODE": 295.1251, "ARG_OF_PERICENTER": 49.0539, "MEAN_ANOMALY": 311.0545, "EPHEMERIS_TYPE": 0, "CLASSIFICATION_TYPE": "U", "NORAD_CAT_ID": 66405, "ELEMENT_SET_NO": 999, "REV_AT_EPOCH": 529, "BSTAR": 0.0017587566, "MEAN_MOTION_DOT": 0.00098521, "MEAN_MOTION_DDOT": 0}, "tle": {"line1": "1 66405U 25257AB  25340.18000338  .00098521  00000+0  17588-2 0  9994", "line2": "2 66405  53.1588 295.1251 0000873  49.0539 311.0545 15.49283742  5296"}}, "geometry": {"type": "Point", "coordinates": [0.32099966662364876, 51.39519313961555]}}]}